[
  {
    "id": 1,
    "streetAddress": "1004 N Main St",
    "city": "Seymour",
    "state": {
      "code": "WI"
    },
    "zipCode": "54165",
    "person": {
      "id": 50
    }
  },
  {
    "id": 2,
    "streetAddress": "714 N Wedel Ave",
    "city": "Moundridge",
    "state": {
      "code": "KS"
    },
    "zipCode": "67107",
    "person": {
      "id": 49
    }
  },
  {
    "id": 3,
    "streetAddress": "2591 Eagles Nest Drive",
    "city": "Tamarack",
    "state": {
      "code": "CA"
    },
    "zipCode": "95705",
    "person": {
      "id": 48
    }
  },
  {
    "id": 4,
    "streetAddress": "503 Dane Street",
    "city": "Lewiston",
    "state": {
      "code": "WA"
    },
    "zipCode": "83501",
    "person": {
      "id": 47
    }
  },
  {
    "id": 5,
    "streetAddress": "3652 White Pine Lane",
    "city": "Roanoke",
    "state": {
      "code": "VA"
    },
    "zipCode": "24011",
    "person": {
      "id": 46
    }
  },
  {
    "id": 6,
    "streetAddress": "3339 Custer Street",
    "city": "State College",
    "state": {
      "code": "PA"
    },
    "zipCode": "16801",
    "person": {
      "id": 45
    }
  },
  {
    "id": 7,
    "streetAddress": "544 Airplane Avenue",
    "city": "Bloomfield",
    "state": {
      "code": "CT"
    },
    "zipCode": "06002",
    "person": {
      "id": 44
    }
  },
  {
    "id": 8,
    "streetAddress": "891 Terra Street",
    "city": "Bellingham",
    "state": {
      "code": "WA"
    },
    "zipCode": "98225",
    "person": {
      "id": 43
    }
  },
  {
    "id": 9,
    "streetAddress": "1180 James Street",
    "city": "Buffalo",
    "state": {
      "code": "NY"
    },
    "zipCode": "14202",
    "person": {
      "id": 42
    }
  },
  {
    "id": 10,
    "streetAddress": "2720 Flynn Street",
    "city": "Cleveland",
    "state": {
      "code": "OH"
    },
    "zipCode": "44115",
    "person": {
      "id": 41
    }
  },
  {
    "id": 11,
    "streetAddress": "4815 Airplane Avenue",
    "city": "Hartford",
    "state": {
      "code": "CT"
    },
    "zipCode": "06103",
    "person": {
      "id": 40
    }
  },
  {
    "id": 12,
    "streetAddress": "1430 Central Avenue",
    "city": "Union City",
    "state": {
      "code": "NJ"
    },
    "zipCode": "07087",
    "person": {
      "id": 39
    }
  },
  {
    "id": 13,
    "streetAddress": "3404 West Side Avenue",
    "city": "Jersey City",
    "state": {
      "code": "NJ"
    },
    "zipCode": "07306",
    "person": {
      "id": 38
    }
  },
  {
    "id": 14,
    "streetAddress": "3193 Hillside Drive",
    "city": "Carencro",
    "state": {
      "code": "LA"
    },
    "zipCode": "70520",
    "person": {
      "id": 37
    }
  },
  {
    "id": 15,
    "streetAddress": "2809 Diamond Street",
    "city": "Newton",
    "state": {
      "code": "NC"
    },
    "zipCode": "28658",
    "person": {
      "id": 36
    }
  },
  {
    "id": 16,
    "streetAddress": "282 Whitetail Lane",
    "city": "Dallas",
    "state": {
      "code": "TX"
    },
    "zipCode": "75207",
    "person": {
      "id": 35
    }
  },
  {
    "id": 17,
    "streetAddress": "4806 Byrd Lane",
    "city": "Tijeras",
    "state": {
      "code": "NM"
    },
    "zipCode": "87008",
    "person": {
      "id": 34
    }
  },
  {
    "id": 18,
    "streetAddress": "2026 Margaret Street",
    "city": "Houston",
    "state": {
      "code": "TX"
    },
    "zipCode": "77063",
    "person": {
      "id": 33
    }
  },
  {
    "id": 19,
    "streetAddress": "2429 Renwick Drive",
    "city": "Philadelphia",
    "state": {
      "code": "PA"
    },
    "zipCode": "19108",
    "person": {
      "id": 32
    }
  },
  {
    "id": 20,
    "streetAddress": "2612 White River Way",
    "city": "Salt Lake City",
    "state": {
      "code": "UT"
    },
    "zipCode": "84111",
    "person": {
      "id": 31
    }
  },
  {
    "id": 21,
    "streetAddress": "3352 Still Pastures Drive",
    "city": "Columbia",
    "state": {
      "code": "SC"
    },
    "zipCode": "29210",
    "person": {
      "id": 30
    }
  },
  {
    "id": 22,
    "streetAddress": "1112 Dovetail Drive",
    "city": "Lombard",
    "state": {
      "code": "IL"
    },
    "zipCode": "60148",
    "person": {
      "id": 29
    }
  },
  {
    "id": 23,
    "streetAddress": "17 Maloy Court",
    "city": "Garnett",
    "state": {
      "code": "KS"
    },
    "zipCode": "66032",
    "person": {
      "id": 28
    }
  },
  {
    "id": 24,
    "streetAddress": "2351 Flynn Street",
    "city": "Cleveland",
    "state": {
      "code": "OH"
    },
    "zipCode": "44114",
    "person": {
      "id": 27
    }
  },
  {
    "id": 25,
    "streetAddress": "814 Lindale Avenue",
    "city": "San Francisco",
    "state": {
      "code": "CA"
    },
    "zipCode": "94104",
    "person": {
      "id": 26
    }
  },
  {
    "id": 26,
    "streetAddress": "272 Marietta Street",
    "city": "Santa Rosa",
    "state": {
      "code": "CA"
    },
    "zipCode": "95401",
    "person": {
      "id": 25
    }
  },
  {
    "id": 27,
    "streetAddress": "1840 Duff Avenue",
    "city": "West Rutland",
    "state": {
      "code": "VT"
    },
    "zipCode": "05777",
    "person": {
      "id": 24
    }
  },
  {
    "id": 28,
    "streetAddress": "1844 Coleman Avenue",
    "city": "Palm Springs",
    "state": {
      "code": "CA"
    },
    "zipCode": "92262",
    "person": {
      "id": 23
    }
  },
  {
    "id": 29,
    "streetAddress": "1167 Williams Mine Road",
    "city": "Somerville",
    "state": {
      "code": "NJ"
    },
    "zipCode": "08876",
    "person": {
      "id": 22
    }
  },
  {
    "id": 30,
    "streetAddress": "520 Clay Lick Road",
    "city": "Westminster",
    "state": {
      "code": "CO"
    },
    "zipCode": "80030",
    "person": {
      "id": 21
    }
  },
  {
    "id": 31,
    "streetAddress": "2331 Passaic Street",
    "city": "Washington",
    "state": {
      "code": "DC"
    },
    "zipCode": "20007",
    "person": {
      "id": 20
    }
  },
  {
    "id": 32,
    "streetAddress": "682 High Meadow Lane",
    "city": "Lewisburg",
    "state": {
      "code": "PA"
    },
    "zipCode": "17837",
    "person": {
      "id": 19
    }
  },
  {
    "id": 33,
    "streetAddress": "2972 Sycamore Street",
    "city": "Santa Clara",
    "state": {
      "code": "CA"
    },
    "zipCode": "95054",
    "person": {
      "id": 18
    }
  },
  {
    "id": 34,
    "streetAddress": "671 D Street",
    "city": "Detroit",
    "state": {
      "code": "MI"
    },
    "zipCode": "48226",
    "person": {
      "id": 17
    }
  },
  {
    "id": 35,
    "streetAddress": "1829 Douglas Dairy Road",
    "city": "Burkes Garden",
    "state": {
      "code": "VA"
    },
    "zipCode": "24608",
    "person": {
      "id": 16
    }
  },
  {
    "id": 36,
    "streetAddress": "1205 Timber Ridge Road",
    "city": "Roseville",
    "state": {
      "code": "CA"
    },
    "zipCode": "95678",
    "person": {
      "id": 15
    }
  },
  {
    "id": 37,
    "streetAddress": "1877 Nelm Street",
    "city": "Beltsville",
    "state": {
      "code": "VA"
    },
    "zipCode": "20705",
    "person": {
      "id": 14
    }
  },
  {
    "id": 38,
    "streetAddress": "4395 Pinnickinick Street",
    "city": "Redmond",
    "state": {
      "code": "WA"
    },
    "zipCode": "98052",
    "person": {
      "id": 13
    }
  },
  {
    "id": 39,
    "streetAddress": "3833 Prospect Valley Road",
    "city": "Redondo Beach",
    "state": {
      "code": "CA"
    },
    "zipCode": "90278",
    "person": {
      "id": 12
    }
  },
  {
    "id": 40,
    "streetAddress": "1538 Abner Road",
    "city": "Gordon",
    "state": {
      "code": "WI"
    },
    "zipCode": "54838",
    "person": {
      "id": 11
    }
  },
  {
    "id": 41,
    "streetAddress": "3897 Honeysuckle Lane",
    "city": "Tukwila",
    "state": {
      "code": "WA"
    },
    "zipCode": "98168",
    "person": {
      "id": 10
    }
  },
  {
    "id": 42,
    "streetAddress": "1806 Bassel Street",
    "city": "Harahan",
    "state": {
      "code": "LA"
    },
    "zipCode": "70123",
    "person": {
      "id": 9
    }
  },
  {
    "id": 43,
    "streetAddress": "990 Stadium Drive",
    "city": "Orleans",
    "state": {
      "code": "MA"
    },
    "zipCode": "02653",
    "person": {
      "id": 8
    }
  },
  {
    "id": 44,
    "streetAddress": "4123 Pinchelone Street",
    "city": "Portsmouth",
    "state": {
      "code": "VA"
    },
    "zipCode": "23707",
    "person": {
      "id": 7
    }
  },
  {
    "id": 45,
    "streetAddress": "1012 Ashton Lane",
    "city": "Bastrop",
    "state": {
      "code": "TX"
    },
    "zipCode": "78602",
    "person": {
      "id": 6
    }
  },
  {
    "id": 46,
    "streetAddress": "346 Rogers Street",
    "city": "Cincinnati",
    "state": {
      "code": "OH"
    },
    "zipCode": "45241",
    "person": {
      "id": 5
    }
  },
  {
    "id": 47,
    "streetAddress": "460 Andy Street",
    "city": "Watertown",
    "state": {
      "code": "SD"
    },
    "zipCode": "57201",
    "person": {
      "id": 4
    }
  },
  {
    "id": 48,
    "streetAddress": "1033 North Bend River Road",
    "city": "Lexington",
    "state": {
      "code": "KY"
    },
    "zipCode": "40509",
    "person": {
      "id": 3
    }
  },
  {
    "id": 49,
    "streetAddress": "3824 University Hill Road",
    "city": "Springfield",
    "state": {
      "code": "IL"
    },
    "zipCode": "62701",
    "person": {
      "id": 2
    }
  },
  {
    "id": 50,
    "streetAddress": "3702 Meadowbrook Mall Road",
    "city": "Culver City",
    "state": {
      "code": "CA"
    },
    "zipCode": "90232",
    "person": {
      "id": 1
    }
  }
]
